NOAA 15                 
1 25338U 98030A   22200.48250277  .00000169  00000+0  88671-4 0  9991
2 25338  98.6422 229.5965 0010000 197.9889 162.0938 14.26152034257836
NOAA 18                 
1 28654U 05018A   22200.43081818  .00000161  00000+0  11108-3 0  9999
2 28654  98.9480 270.8399 0013391 238.5384 121.4479 14.12755068884583
NOAA 19                 
1 33591U 09005A   22200.50659901  .00000160  00000+0  11163-3 0  9997
2 33591  99.1458 235.3136 0014969  97.9475 262.3395 14.12589612692974
METOP-B                 
1 38771U 12049A   22200.44191241  .00000074  00000+0  53846-4 0  9994
2 38771  98.6939 259.7186 0000920  57.1935   3.1023 14.21496523510272
SARAL                   
1 39086U 13009A   22200.18079171  .00000067  00000+0  41189-4 0  9998
2 39086  98.5480  25.3477 0001718 130.9439 229.1893 14.32052507491025
METOP-C                 
1 43689U 18087A   22200.46710857  .00000080  00000+0  56323-4 0  9998
2 43689  98.6822 259.9257 0001807 329.0624  31.0447 14.21496652191851
ANGELS                  
1 44876U 19092D   22200.04018739  .00002774  00000+0  13943-3 0  9990
2 44876  97.4753  23.0332 0010476 244.5840 115.4310 15.18053780143038
